NORAD_CAT_ID,OBJECT_NAME,OBJECT_TYPE,EPOCH,MEAN_MOTION,ECCENTRICITY,INCLINATION,RA_OF_ASC_NODE,ARG_OF_PERICENTER,MEAN_ANOMALY,BSTAR,MEAN_MOTION_DOT,MEAN_MOTION_DDOT,TLE_LINE0,TLE_LINE1,TLE_LINE2,SEMIMAJOR_AXIS,PERIOD,APOGEE,PERIGEE,DECAYED
51737.0,STARLINK-3509,PAYLOAD,2023-05-08 17:27:20,15.08849509,9.97e-05,53.2161,289.7331,80.3771,279.7334,8.7057e-05,1.098e-05,0.0,0 STARLINK-3509,1 51737U 22016Z   23128.72732081  .00001098  00000-0  87057-4 0  9999,2 51737  53.2161 289.7331 0000997  80.3771 279.7334 15.08849509 67161,6917.851,95.437,540.406,539.027,0.0
51737.0,STARLINK-3509,PAYLOAD,2023-05-09 14:07:22,15.08835114,0.0001083,53.216,285.8663,76.6075,283.5038,0.00012799,1.749e-05,0.0,0 STARLINK-3509,1 51737U 22016Z   23129.58844956  .00001749  00000-0  12799-3 0  9992,2 51737  53.2160 285.8663 0001083  76.6075 283.5038 15.08835114 67292,6917.895,95.438,540.51,539.011,0.0
51737.0,STARLINK-3509,PAYLOAD,2023-05-10 10:47:22,15.08841909,0.0001096,53.2167,282.0054,85.7243,274.3875,-4.6929e-05,-1.035e-05,0.0,0 STARLINK-3509,1 51737U 22016Z   23130.44957126 -.00001035  00000-0 -46929-4 0  9996,2 51737  53.2167 282.0054 0001096  85.7243 274.3875 15.08841909 67425,6917.875,95.437,540.498,538.981,0.0
51737.0,STARLINK-3509,PAYLOAD,2023-05-10 17:08:55,15.08845932,0.0001255,53.2176,280.8167,102.844,257.2692,1.6842e-05,-2e-07,0.0,0 STARLINK-3509,1 51737U 22016Z   23130.71452654 -.00000020  00000-0  16842-4 0  9995,2 51737  53.2176 280.8167 0001255 102.8440 257.2692 15.08845932 67464,6917.862,95.437,540.595,538.859,0.0
51737.0,STARLINK-3509,PAYLOAD,2023-05-11 12:13:32,15.08847547,9.65e-05,53.2162,277.2446,93.8774,266.2329,4.644e-05,4.52e-06,0.0,0 STARLINK-3509,1 51737U 22016Z   23131.50940412  .00000452  00000-0  46440-4 0  9992,2 51737  53.2162 277.2446 0000965  93.8774 266.2329 15.08847547 67589,6917.857,95.437,540.39,539.055,0.0
51737.0,STARLINK-3509,PAYLOAD,2023-05-11 16:59:41,15.08854638,9.87e-05,53.2161,276.3527,93.56,266.5505,0.00010027,1.309e-05,0.0,0 STARLINK-3509,1 51737U 22016Z   23131.70811766  .00001309  00000-0  10027-3 0  9996,2 51737  53.2161 276.3527 0000987  93.5600 266.5505 15.08854638 68676,6917.836,95.437,540.383,539.018,0.0
51737.0,STARLINK-3509,PAYLOAD,2023-05-12 02:32:00,15.08841569,0.0001117,53.2168,274.5708,99.1734,260.9385,8.1614e-05,1.011e-05,0.0,0 STARLINK-3509,1 51737U 22016Z   23132.10556553  .00001011  00000-0  81614-4 0  9992,2 51737  53.2168 274.5708 0001117  99.1734 260.9385 15.08841569 68730,6917.876,95.437,540.513,538.968,0.0
51737.0,STARLINK-3509,PAYLOAD,2023-05-12 16:50:29,15.08840015,0.000102,53.2162,271.8919,99.2887,260.8221,2.8017e-05,1.58e-06,0.0,0 STARLINK-3509,1 51737U 22016Z   23132.70172895  .00000158  00000-0  28017-4 0  9990,2 51737  53.2162 271.8919 0001020  99.2887 260.8221 15.08840015 67766,6917.88,95.438,540.451,539.04,0.0
51737.0,STARLINK-3509,PAYLOAD,2023-05-13 02:22:48,15.08838235,0.0001062,53.2166,270.1073,87.5887,272.5227,3.6984e-05,3.01e-06,0.0,0 STARLINK-3509,1 51737U 22016Z   23133.09917074  .00000301  00000-0  36984-4 0  9991,2 51737  53.2166 270.1073 0001062  87.5887 272.5227 15.08838235 68880,6917.886,95.438,540.485,539.016,0.0
51737.0,STARLINK-3509,PAYLOAD,2023-05-13 13:30:30,15.08838726,0.0001097,53.2169,268.0252,84.4266,275.6851,2.1162e-05,4.9e-07,0.0,0 STARLINK-3509,1 51737U 22016Z   23133.56285199  .00000049  00000-0  21162-4 0  9990,2 51737  53.2169 268.0252 0001097  84.4266 275.6851 15.08838726 67895,6917.884,95.438,540.508,538.99,0.0
51737.0,STARLINK-3509,PAYLOAD,2023-05-13 16:41:16,15.08846436,0.0001261,53.2168,267.4304,78.9381,281.1753,-1.8848e-05,-5.88e-06,0.0,0 STARLINK-3509,1 51737U 22016Z   23133.69532793 -.00000588  00000-0 -18848-4 0  9996,2 51737  53.2168 267.4304 0001261  78.9381 281.1753 15.08846436 67917,6917.861,95.437,540.598,538.853,0.0
51737.0,STARLINK-3509,PAYLOAD,2023-05-14 13:21:18,15.08826482,0.0001171,53.2173,263.567,86.8583,273.2543,4.0027e-05,3.49e-06,0.0,0 STARLINK-3509,1 51737U 22016Z   23134.55646054  .00000349  00000-0  40027-4 0  9995,2 51737  53.2173 263.5670 0001171  86.8583 273.2543 15.08826482 69109,6917.922,95.438,540.597,538.977,0.0
51737.0,STARLINK-3509,PAYLOAD,2023-05-14 14:56:41,15.08829991,0.000136,53.2168,263.2698,73.6428,286.4714,-3.0971e-06,-3.37e-06,0.0,0 STARLINK-3509,1 51737U 22016Z   23134.62270104 -.00000337  00000-0 -30971-5 0  9999,2 51737  53.2168 263.2698 0001360  73.6428 286.4714 15.08829991 68059,6917.911,95.438,540.717,538.835,0.0
51737.0,STARLINK-3509,PAYLOAD,2023-05-15 02:04:22,15.08836685,0.0001279,53.2172,261.1842,95.2077,264.9061,5.5444e-05,5.95e-06,0.0,0 STARLINK-3509,1 51737U 22016Z   23135.08637476  .00000595  00000-0  55444-4 0  9994,2 51737  53.2172 261.1842 0001279  95.2077 264.9061 15.08836685 69180,6917.891,95.438,540.64,538.871,0.0
51737.0,STARLINK-3509,PAYLOAD,2023-05-15 11:36:41,15.08836283,0.000115,53.217,259.3998,97.8302,262.282,6.3709e-05,7.26e-06,0.0,0 STARLINK-3509,1 51737U 22016Z   23135.48381528  .00000726  00000-0  63709-4 0  9991,2 51737  53.2170 259.3998 0001150  97.8302 262.2820 15.08836283 68183,6917.892,95.438,540.552,538.961,0.0
51737.0,STARLINK-3509,PAYLOAD,2023-05-15 14:47:27,15.08840149,0.000116,53.2173,258.8046,99.0916,261.0207,5.0925e-05,5.23e-06,0.0,0 STARLINK-3509,1 51737U 22016Z   23135.61629299  .00000523  00000-0  50925-4 0  9997,2 51737  53.2173 258.8046 0001160  99.0916 261.0207 15.08840149 68205,6917.88,95.438,540.547,538.942,0.0
51737.0,STARLINK-3509,PAYLOAD,2023-05-16 13:02:51,15.0883656,0.0001273,53.217,254.6419,103.2075,256.9059,9.0473e-05,1.152e-05,0.0,0 STARLINK-3509,1 51737U 22016Z   23136.54365637  .00001152  00000-0  90473-4 0  9994,2 51737  53.2170 254.6419 0001273 103.2075 256.9059 15.08836560 69402,6917.891,95.438,540.637,538.875,0.0
51737.0,STARLINK-3509,PAYLOAD,2023-05-17 14:29:02,15.08841038,0.0001164,53.2166,249.8857,97.347,262.7655,3.0669e-05,2e-06,0.0,0 STARLINK-3509,1 51737U 22016Z   23137.60349653  .00000200  00000-0  30669-4 0  9996,2 51737  53.2166 249.8857 0001164  97.3470 262.7655 15.08841038 69560,6917.877,95.437,540.547,538.937,0.0
51737.0,STARLINK-3509,PAYLOAD,2023-05-18 12:44:26,15.08835135,0.0001099,53.2162,245.7234,92.0666,268.0452,1.0965e-05,-1.13e-06,0.0,0 STARLINK-3509,1 51737U 22016Z   23138.53086240 -.00000113  00000-0  10965-4 0  9990,2 51737  53.2162 245.7234 0001099  92.0666 268.0452 15.08835135 69707,6917.895,95.438,540.521,539.0,0.0
51737.0,STARLINK-3509,PAYLOAD,2023-05-19 15:45:59,15.08843659,0.0001325,53.2161,240.6691,100.7139,259.4002,-1.7202e-05,-5.62e-06,0.0,0 STARLINK-3509,1 51737U 22016Z   23139.65693966 -.00000562  00000-0 -17202-4 0  9993,2 51737  53.2161 240.6691 0001325 100.7139 259.4002 15.08843659 69874,6917.869,95.437,540.651,538.818,0.0
51737.0,STARLINK-3509,PAYLOAD,2023-05-20 14:01:22,15.08858244,0.0001172,53.2171,236.5033,84.926,275.1866,0.00016623,2.36e-05,0.0,0 STARLINK-3509,1 51737U 22016Z   23140.58428508  .00002360  00000-0  16623-3 0  9996,2 51737  53.2171 236.5033 0001172  84.9260 275.1866 15.08858244 70014,6917.825,95.436,540.5,538.879,0.0
51737.0,STARLINK-3509,PAYLOAD,2023-05-21 09:06:00,15.08839913,0.0001256,53.2164,232.9373,80.587,279.5264,5.8423e-05,6.42e-06,0.0,0 STARLINK-3509,1 51737U 22016Z   23141.37917819  .00000642  00000-0  58423-4 0  9998,2 51737  53.2164 232.9373 0001256  80.5870 279.5264 15.08839913 70130,6917.881,95.438,540.615,538.877,0.0
51737.0,STARLINK-3509,PAYLOAD,2023-05-21 10:41:24,15.08839848,0.0001074,53.2162,232.6407,82.6482,277.4632,6.3748e-05,7.27e-06,0.0,0 STARLINK-3509,1 51737U 22016Z   23141.44541759  .00000727  00000-0  63748-4 0  9992,2 51737  53.2162 232.6407 0001074  82.6482 277.4632 15.08839848 69088,6917.881,95.438,540.489,539.003,0.0
51737.0,STARLINK-3509,PAYLOAD,2023-05-21 13:52:10,15.08844458,0.000101,53.2159,232.0457,107.0632,253.047,3.0366e-05,1.96e-06,0.0,0 STARLINK-3509,1 51737U 22016Z   23141.57789461  .00000196  00000-0  30366-4 0  9990,2 51737  53.2159 232.0457 0001010 107.0632 253.0470 15.08844458 69108,6917.867,95.437,540.43,539.033,0.0
51737.0,STARLINK-3509,PAYLOAD,2023-05-22 12:07:34,15.08845102,0.0001151,53.2164,227.8797,118.7761,241.3347,-8.6315e-05,-1.661e-05,0.0,0 STARLINK-3509,1 51737U 22016Z   23142.50525776 -.00001661  00000-0 -86315-4 0  9996,2 51737  53.2164 227.8797 0001151 118.7761 241.3347 15.08845102 69246,6917.865,95.437,540.526,538.934,0.0
51737.0,STARLINK-3509,PAYLOAD,2023-05-23 11:58:22,15.08828572,9.56e-05,53.2163,223.421,96.8632,263.2468,-5.836e-05,-1.216e-05,0.0,0 STARLINK-3509,1 51737U 22016Z   23143.49886953 -.00001216  00000-0 -58360-4 0  9997,2 51737  53.2163 223.4210 0000956  96.8632 263.2468 15.08828572 70456,6917.915,95.438,540.442,539.119,0.0
51737.0,STARLINK-3509,PAYLOAD,2023-05-24 08:38:24,15.08809897,9.87e-05,53.2161,219.5552,107.928,252.182,-1.7625e-05,-5.68e-06,0.0,0 STARLINK-3509,1 51737U 22016Z   23144.36001005 -.00000568  00000-0 -17625-4 0  9999,2 51737  53.2161 219.5552 0000987 107.9280 252.1820 15.08809897 70588,6917.972,95.439,540.52,539.155,0.0
51737.0,STARLINK-3509,PAYLOAD,2023-05-25 14:50:42,15.08837067,0.0001144,53.2161,213.9043,94.9707,265.1416,0.0002728,4.056e-05,0.0,0 STARLINK-3509,1 51737U 22016Z   23145.61855255  .00004056  00000-0  27280-3 0  9993,2 51737  53.2161 213.9043 0001144  94.9707 265.1416 15.08837067 70772,6917.889,95.438,540.546,538.963,0.0
51737.0,STARLINK-3509,PAYLOAD,2023-05-26 13:06:06,15.08826636,0.0001167,53.2153,209.7399,96.5317,263.5808,0.0005122,7.87e-05,0.0,0 STARLINK-3509,1 51737U 22016Z   23146.54591276  .00007870  00000-0  51220-3 0  9994,2 51737  53.2153 209.7399 0001167  96.5317 263.5808 15.08826636 69854,6917.921,95.438,540.594,538.979,0.0
51737.0,STARLINK-3509,PAYLOAD,2023-05-26 14:41:30,15.08830653,0.0001248,53.2162,209.4442,100.0141,260.0992,0.00045021,6.883e-05,0.0,0 STARLINK-3509,1 51737U 22016Z   23146.61215297  .00006883  00000-0  45021-3 0  9993,2 51737  53.2162 209.4442 0001248 100.0141 260.0992 15.08830653 69867,6917.909,95.438,540.637,538.911,0.0
